#dP2022  7 21  6  0  0.00000000      96 __u+U ITR00 EXT  IAC
## 2219 367200.00000000   900.00000000 59781 0.2500000000000
+  116   C06C07C08C09C10C11C12C13C14C16C19C20C21C22C23C24C25
+        C26C27C28C29C30C32C33C34C35C36C37C38C39C40C41C42C43
+        C44C45C46E01E02E03E04E05E07E08E09E10E11E12E13E14E15
+        E18E19E21E24E25E26E27E30E31E33E34E36G01G02G03G04G05
+        G06G07G08G09G10G11G12G13G14G15G16G17G18G19G20G21G22
+        G23G24G25G26G27G28G29G30G31G32J02J03R01R02R03R04R05
+        R07R08R09R11R12R13R14R15R17R18R19R20R21R24  0  0  0
++        11  7 10  9 10  8  8 10 15 11  7 10  8  6  9 10  8
++         9  7  9  9  9  9  9  8  8  8  7  9 11 10  8  8  8
++         7  7  8  8  7  8  8  9  7  7  8  6  7  8  7  7  8
++         8  8  8  8  8  8  8  7  7  7  7  8  7  7  8  7  8
++         7  7  7  7  9  7  7  7  7  7  9  8  7  7  9  8  8
++         9  8  7  7  7  8  8  8  7  7  9 11 10  9 11  7  8
++         9  8  7  8  8  7  7  8  8  8  7  9  7  9  0  0  0
%c M  cc GPS ccc cccc cccc cccc cccc ccccc ccccc ccccc ccccc
%c cc cc ccc ccc cccc cccc cccc cccc ccccc ccccc ccccc ccccc
%f  0.0000000  0.000000000  0.00000000000  0.000000000000000
%f  0.0000000  0.000000000  0.00000000000  0.000000000000000
%i    0    0    0    0      0      0      0      0         0
%i    0    0    0    0      0      0      0      0         0
/* IAC                                ULTRA-RAPID PREDICTION
/* S/V CLOCKS ARE ALIGNED TO GNSS TIME                      
/* G:C1WC2W R:C1PC2P E:C1XC5X C:C2IC6I J:C1CC2S             
/* PCV:IGS14_2215 OL/AL:FES2004  NONE     YN ORB:CoN CLK:CoN
*  2022 07 22  1 45  0.00000000
PC06  -3851.021949  25511.617271 -33286.067888    444.448465
PC07 -16700.210440  33143.237350  19874.604110   -460.960732
PC08  -4689.648387  40580.324762  10763.203985    413.298742
PC09   3931.534926  28293.411931 -30472.573879   -920.283857
PC10  -9893.833194  32889.360624  24406.576968    116.321569
PC11  20773.761114  16610.613262   8564.255239    488.794353
PC12   4328.781641  17631.181536  21228.982402   -571.284032
PC13  -1289.053015  41858.698176   6155.653272     30.765179
PC14  12423.680623  10368.595590 -22723.787470    552.233520
PC16  -6272.179451  23757.267062 -34031.286279    143.333419
PC19 -19792.730927  -2341.715311  19544.919906   -260.894759
PC20  -4621.496856 -15713.045271  22609.090457   -964.005547
PC21 -14393.118309  20503.574682 -12254.292649    -30.132824
PC22 -24191.176318  12947.702094   4995.858493   -962.985670
PC23  15080.448220  -8487.651911  21905.561249   -949.066973
PC24   6053.973894  26773.861091   5086.475970   -967.653284
PC25  15692.066399  11739.875969  19870.444997   -704.156263
PC26  -4923.138903  25286.850285 -10776.902738    706.204071
PC27   5572.309008 -14933.633318 -22929.445562    757.903017
PC28  21652.458223  -2995.741040 -17353.903077     92.753300
PC29 -25874.604139 -10405.157311    948.029346    584.905349
PC30 -14011.480167 -18111.999194 -15970.981157    501.351972
PC32  14294.361460 -20639.091479  12212.843774    461.616566
PC33  19792.488094   2279.220185 -19545.943494   -222.407179
PC34  14957.616602  18006.521368  15163.768780   -353.534220
PC35 -22325.841637   2871.832237  16500.181025    376.746248
PC36 -15267.893755 -12672.366702 -19591.128337   -971.960232
PC37   6294.217744 -24485.419609  11816.566863   -919.908296
PC38  -9374.321654  37285.492723  17499.290449     11.786538
PC39 -11898.481442  21016.553879 -34534.735380     -0.089869
PC40 -24289.799772  28362.280894  19341.901338     -0.955432
PC41  24223.440664 -12739.991958  -5413.882412   -100.179649
PC42   3581.462512  16314.908915 -22309.690771   -952.761840
PC43  25671.052016  10916.347014   -268.503667      4.284457
PC44  -5338.062436  15128.210382  22817.951102    731.708315
PC45 -14856.679539   8870.776677 -21887.729351    815.083269
PC46  -7033.620083 -26159.299008  -6622.428103   -444.658263
PE01   7506.570025 -27712.964568  -7193.050076   -519.737966
PE02  -7370.654967  27710.629254   7371.647204    313.450632
PE03  -3757.336988  17192.492559 -23798.089637   -581.450919
PE04 -17722.148542 -12567.600010  20110.544014  -1076.581307
PE05 -23510.534209  11801.956535 -13560.618616   -160.766345
PE07  29278.817645    350.318922  -4376.863780   -689.647307
PE08  17930.137619  12301.990499 -20086.483687   -567.758341
PE09 -29258.606813   -257.384773   4422.587210   -595.871704
PE10 -21223.451584 -17663.496247  10639.040010   -502.159239
PE11 -21150.890076  -8485.723668  18877.446286   2924.581078
PE12 -17857.838529 -23582.842135   1231.075298    -74.513644
PE13  21257.188850   9165.112761 -18451.469038    429.914081
PE14   5965.353076  15635.712391  18285.686341  -1772.175267
PE15  17836.561401  23597.952954  -1081.495570    731.777808
PE18   3282.783451 -19950.474673 -24252.987766  -1186.292879
PE19   6724.266097 -16929.808807  23339.601571  -5026.592888
PE21  17634.971639 -21436.044482  10289.848957   -747.291716
PE24 -18177.352450   1149.353855 -23343.675002   -737.948325
PE25 -17719.903850  21241.842474 -10522.856618   -581.888224
PE26  11682.199993 -11440.939915 -24678.060915  -1404.581012
PE27  18429.394718  -2439.272782  23041.871074   -350.297672
PE30   7691.926788  18617.673716  21688.250036   -691.518267
PE31  -8365.999625 -17807.479916 -22103.003705   -500.327178
PE33  -3911.016010 -24034.998307 -16834.898255   -454.498210
PE34   4131.795975  24102.634518  16672.873436   -487.042356
PE36 -12177.003957  10515.466410  24839.917644   -405.581758
PG01 -17612.537970  -6787.176583  18521.283857    316.805273
PG02  15660.498440  21232.550579  -1656.658165   -650.952588
PG03 -17534.200127   3754.776573  19433.409788   -313.341860
PG04 -26554.944757  -1599.690890    600.763802   -143.027352
PG05  11532.081171  10477.195272 -21670.730567    -90.015785
PG06   4181.198966  23447.806505  11735.765719    394.691668
PG07 -11695.459747  10073.733883 -21158.740859    318.363215
PG08 -24646.443898  -5731.141832  -8675.446281    -77.206867
PG09 -23559.736233   7294.376365  -9978.284538   -316.611941
PG10  10832.280754 -23765.095319   3986.858736   -500.389724
PG11  12274.361878  23556.832802   -801.329935    -10.431377
PG12  16888.812650     -9.089136  20208.295236   -250.121266
PG13  17720.539820  13093.205408 -15119.123683    353.034549
PG14 -12780.101046  23091.557808   2432.125161   -111.485430
PG15  25027.832609   3724.415087  -8989.990246    -43.537033
PG16  -6065.818989 -15825.248473 -20605.497436   -516.658119
PG17 -10439.459266  13350.720626  20896.830358    639.605776
PG18  11211.441382 -10427.023291 -21701.995438    106.099498
PG19    -79.721223  14807.078593  21806.930369    186.863113
PG20   3952.745735  21117.081510 -15758.107399    501.242624
PG21 -19802.745858 -14024.340273  12214.789724    160.997019
PG22  -2989.477805 -15533.747040  21776.115785    296.403248
PG23  16241.674896 -19844.737308  -6698.565480    -33.944238
PG24  19770.998442   9520.233382  14939.898733    190.631630
PG25  18428.215592 -13694.127297  12829.652246    351.926439
PG26    341.042004 -22641.521283 -13714.758099    219.542903
PG27 -14998.682462 -12627.139030 -18312.570761    220.917142
PG28  -6837.833709  23208.778139  11728.322866    336.348696
PG29  23988.863289  -4954.945253 -10417.189934   -535.764709
PG30  -4015.594426  19472.674027 -17398.728466   -534.496263
PG31  -5560.801107 -24042.785772   9047.496708   -186.669357
PG32   6788.551634 -14800.765364  21097.027361   -182.594215
PJ02 -25549.633381  31370.968851  -7139.091954     -1.998011
PJ03 -25161.062797  23686.079909  29223.377453     -0.218106
PR01  17309.057832   1495.028539 -18682.046102     11.862114
PR02  23487.599583  -9699.778339  -1756.432626    524.830126
PR03  14785.838591 -14551.172298  14848.448144     60.599622
PR04  -1767.009401 -10979.915055  22982.928490    151.443107
PR05 -17494.848761  -1578.972514  18516.661155     96.614974
PR07 -14314.788231  14542.140544 -15298.533695     38.198360
PR08   1946.187697  11011.873697 -22871.078920    -66.335570
PR09 -11005.185128   9702.761289 -20823.457748     67.049763
PR11   2130.269778  24018.697549   8309.451721     32.620623
PR12   9463.842116  10039.032952  21489.186047     19.421687
PR13  10958.082018  -8277.481928  21488.184064    -24.861660
PR14   5936.385786 -23409.865903   8262.235961     24.792259
PR15  -2311.630890 -23709.752464  -9105.157833     94.570513
PR17   3013.899788 -10669.647752 -22967.089523    545.571461
PR18 -12217.974405 -16983.860323 -14617.465926     33.825858
PR19 -20269.431765 -15477.520231    170.183322   -197.179121
PR20 -17391.004023  -3095.000377  18418.999418    -75.064992
PR21  -1501.557980  11523.215628  22704.236838   -319.327275
PR24  17299.771284   1806.279226 -18656.812464    104.797788
EOF
